BEESAT-4                
1 41619U 16040W   23038.64163411  .00050970  00000+0  12173-2 0  9990
2 41619  97.1829  88.8327 0006877   1.0227 359.1033 15.41331390356801
RAVAN                   
1 41849U 16067B   23039.40317751  .00012628  00000+0  93663-3 0  9999
2 41849  98.0188 188.8345 0015902 259.7856 100.1575 15.03127794341408
CELTEE 1                
1 41850U 16067C   23039.34574933  .00007789  00000+0  63243-3 0  9994
2 41850  98.0279 182.9473 0004348 297.0824  62.9954 14.99913557341095
OPTICUBE 04             
1 41851U 16067D   23039.39656692  .00004719  00000+0  39737-3 0  9994
2 41851  98.0231 181.6903 0007218 271.9580  88.0815 14.98715631341038
AEROCUBE 8D             
1 41852U 16067E   23039.47284496  .00009538  00000+0  77116-3 0  9990
2 41852  98.0236 182.0428 0004632 295.6562  64.4182 15.00006414341054
AEROCUBE 8C             
1 41853U 16067F   23039.45818916  .00008248  00000+0  66824-3 0  9990
2 41853  98.0188 181.8217 0007069 253.7239 106.3206 14.99963917341046
PROMETHEUS 2-1          
1 41854U 16067G   23039.37440042  .00012637  00000+0  95742-3 0  9991
2 41854  98.0482 183.7371 0017096 290.3853  69.5534 15.02309023341126
PROMETHEUS 2-3          
1 41855U 16067H   23039.36598804  .00013064  00000+0  99090-3 0  9996
2 41855  98.0378 183.7255 0015229 300.3143  59.6573 15.02280226341128
INS-1B                  
1 41954U 17008G   23039.46663106  .00050267  00000+0  12113-2 0  9997
2 41954  97.2236 100.2459 0006851 106.0892 254.1110 15.41064075332950
BGUSAT                  
1 41999U 17008BD  23039.15757530  .00523676  00000+0  22962-2 0  9999
2 41999  97.2459 117.4420 0002935 315.4802  44.6231 15.83298643333212
DIDO-2                  
1 42000U 17008BE  23039.39092407  .00024426  00000+0  75545-3 0  9999
2 42000  97.2235  97.9097 0007636 130.8367 229.3539 15.33460028332156
PEASSS                  
1 42015U 17008BV  23039.15719125  .00040946  00000+0  10317-2 0  9992
2 42015  97.2306 103.2182 0005101 120.2818 239.8933 15.39764875332928
AL-FARABI 1             
1 42016U 17008BW  23039.41322172  .00069567  00000+0  13635-2 0  9990
2 42016  97.2367 108.2423 0003747 117.0726 243.0907 15.47123288333346
NAYIF-1 (EO-88)         
1 42017U 17008BX  23038.74785178  .00067924  00000+0  13175-2 0  9999
2 42017  97.2359 107.6418 0003894 116.5268 243.6382 15.47432158333277
UCLSAT                  
1 42765U 17036A   23038.70686371  .00041324  00000+0  11001-2 0  9993
2 42765  97.1657  79.6344 0007556 187.2695 172.8443 15.38056218313897
LITUANICASAT-2          
1 42768U 17036D   23039.58878572  .00173164  00000+0  20976-2 0  9998
2 42768  97.1686  87.2175 0007239 159.2697 200.8856 15.60050729313681
AALTO-1                 
1 42775U 17036L   23039.54376933  .00022325  00000+0  76771-3 0  9993
2 42775  97.1703  73.6502 0010620 197.6764 162.4109 15.30038741312816
URSA MAIOR              
1 42776U 17036M   23039.53754131  .00023834  00000+0  79162-3 0  9996
2 42776  97.1714  74.6781 0010301 195.3335 164.7596 15.31154416312863
COMPASS 2               
1 42777U 17036N   23039.58469218  .00087702  00000+0  17461-2 0  9998
2 42777  97.1708  84.4116 0007570 167.4945 192.6494 15.46570296313434
DIAMOND RED             
1 42783U 17036U   23039.33671475  .00025191  00000+0  78741-3 0  9991
2 42783  97.1705  77.3437 0008595 197.1225 162.9729 15.33108549313002
PEGASUS                 
1 42784U 17036V   23039.59291105  .00041156  00000+0  11566-2 0  9998
2 42784  97.1689  79.4265 0008224 189.0464 171.0633 15.36369201313169
DIAMOND GREEN           
1 42785U 17036W   23039.58836020  .00031398  00000+0  97086-3 0  9998
2 42785  97.1706  77.6767 0008496 198.1921 161.9019 15.33409796313119
DIAMOND BLUE            
1 42786U 17036X   23039.59099271  .00030638  00000+0  95045-3 0  9998
2 42786  97.1708  77.6648 0008476 198.2934 161.8005 15.33311652313110
NUDTSAT                 
1 42787U 17036Y   23039.80348439  .00097082  00000+0  17540-2 0  9995
2 42787  97.1673  86.4042 0006726 170.0004 263.6088 15.49344608313453
SUCHAI                  
1 42788U 17036Z   23039.58463056  .00053895  00000+0  13269-2 0  9992
2 42788  97.1680  81.9487 0007512 180.9843 179.1390 15.40390034313395
SKCUBE                  
1 42789U 17036AA  23039.56537471  .00045110  00000+0  11850-2 0  9999
2 42789  97.1684  80.9887 0007722 183.3865 176.7329 15.38446192313251
VZLUSAT-1               
1 42790U 17036AB  23039.58304158  .00097724  00000+0  18030-2 0  9992
2 42790  97.1674  86.0597 0006192 168.4181 191.7213 15.48744028313565
ROBUSTA 1B              
1 42792U 17036AD  23039.59306982  .00054384  00000+0  13652-2 0  9992
2 42792  97.1676  81.8498 0007168 181.7881 178.3341 15.39798126313326
CICERO 6                
1 42793U 17036AE  23038.61871254  .00022040  00000+0  70570-3 0  9991
2 42793  97.1692  77.0343 0007182 199.2097 160.8875 15.32375432313018
CORVUS BC2              
1 42846U 17042X   23039.56014109  .00003919  00000+0  37456-3 0  9990
2 42846  97.3960 248.2435 0007988 289.5649  70.4709 14.93767965303519
CORVUS BC1              
1 42847U 17042Y   23039.55937721  .00004055  00000+0  38646-3 0  9998
2 42847  97.3961 248.5832 0007677 288.2620  71.7765 14.93857987303526
MIRATA                  
1 43015U 17073C   23039.47561955  .00016565  00000+0  11109-2 0  9996
2 43015  97.6509 291.2588 0225971 122.5277 239.7993 14.88348769282314
MAKERSAT 0              
1 43016U 17073D   23039.45600321  .00010887  00000+0  76428-3 0  9993
2 43016  97.6509 290.0756 0237079 129.5242 232.7194 14.85289552282182
CORVUS BC3              
1 43118U 18004H   23039.44932363  .00022293  00000+0  71598-3 0  9991
2 43118  97.3371 114.4278 0007339 242.0260 118.0240 15.32276944282285
MICROMAS-2A             
1 43131U 18004W   23039.23562137  .00157689  00000+0  20164-2 0  9991
2 43131  97.3486 126.3938 0005399 235.5803 124.4943 15.58678557282955
CICERO 7                
1 43143U 18004AJ  23039.19712372  .00039104  00000+0  89537-3 0  9998
2 43143  97.3529 123.6251 0004266 226.4317 133.6576 15.42676403282792
GOMX-4B                 
1 43196U 18015E   23039.38404694  .00017832  00000+0  59024-3 0  9996
2 43196  97.5597 187.0415 0015437 305.8727  54.1079 15.31268496279206
GOMX-4A                 
1 43197U 18015F   23039.44777273  .00016567  00000+0  50938-3 0  9999
2 43197  97.5578 188.6273 0014977 302.7034 132.3992 15.33654029279329
AEROCUBE 12A            
1 43556U 18046C   23039.38872050  .00086987  00000+0  12512-2 0  9992
2 43556  51.6310 103.5188 0002269 163.5130 196.5935 15.55318469255798
AEROCUBE 12B            
1 43557U 18046D   23039.52343134  .00064972  00000+0  11771-2 0  9991
2 43557  51.6341 113.3163 0003874 158.6148 201.5003 15.49010876255621
CP7 (DAVE)              
1 43615U 18070C   23039.41646304  .01707453  26400-2  13330-2 0  9993
2 43615  92.9886 200.0456 0005860 281.6440  78.4197 16.15488707247998
CUBEBEL-1 (BSUSAT-1)    
1 43666U 18083E   23039.45182411  .00021826  00000+0  76341-3 0  9990
2 43666  97.3984  70.9804 0010208 212.8546 257.8467 15.29497883237461
CICERO 10               
1 43690U 18088A   23039.35815588  .00023609  00000+0  80399-3 0  9998
2 43690  85.0381 159.2715 0011986 358.5501   1.5708 15.30205598235752
PROXIMA I               
1 43694U 18088E   23039.37989060  .00027910  00000+0  89504-3 0  9997
2 43694  85.0314 155.3292 0014223 321.0133  39.0087 15.32104051236012
PROXIMA II              
1 43696U 18088G   23039.32052486  .00027853  00000+0  89512-3 0  9992
2 43696  85.0318 155.4021 0014264 321.2207  38.8015 15.32036009235999
FACSAT-1                
1 43721U 18096C   23039.45846029  .00072911  00000+0  11830-2 0  9990
2 43721  97.3272 125.7834 0010276 277.9178 210.8949 15.52443754234345
CENTAURI-2              
1 43722U 18096D   23039.48451304  .00238783  00000+0  20816-2 0  9997
2 43722  97.3300 130.2636 0010702 269.5594  90.4441 15.68195336234607
SIRION PATHFINDER-2     
1 43759U 18099B   23039.48909166  .00004882  00000+0  42290-3 0  9996
2 43759  97.5908 104.8423 0013300 184.8331 175.2765 14.97503630228356
CORVUS BC4              
1 43767U 18099K   23038.80170608  .00005250  00000+0  46166-3 0  9997
2 43767  97.5871 102.3294 0010724 189.7443 170.3572 14.96907848228167
MOVE-II                 
1 43780U 18099Y   23039.41863477  .00013328  00000+0  10605-2 0  9996
2 43780  97.5980 106.3436 0011790 206.9478 153.1135 15.00470646228407
SPACEBEE-7              
1 43816U 18099BL  23039.11914401  .00010899  00000+0  88255-3 0  9994
2 43816  97.5957 106.7093 0013849 174.1807 185.9580 14.99827977227948
SPACEBEE-5              
1 43817U 18099BM  23039.11467962  .00035103  00000+0  22967-2 0  9992
2 43817  97.6086 111.6887 0004979 169.0841 191.0496 15.07661412228185
SPACEBEE-6              
1 43818U 18099BN  23038.91811750  .00016869  00000+0  12883-2 0  9992
2 43818  97.6097 108.0388 0013633 188.2713 171.8289 15.01964093228138
SHIELDS 1               
1 43850U 18104B   23039.54132644  .00010863  00000+0  42066-3 0  9998
2 43850  85.0239 255.3215 0015577 110.1445 250.1476 15.25919625230479
STF-1                   
1 43852U 18104D   23038.63838317  .00028708  00000+0  88694-3 0  9993
2 43852  85.0246 255.1608 0012973 116.7117 243.5461 15.33309053230486
ZACUBE-2                
1 43907U 18111AH  23039.51407733  .00020083  00000+0  62757-3 0  9994
2 43907  97.1609 282.6519 0016643 325.2597 155.5905 15.33061630229385
LUME 1                  
1 43908U 18111AJ  23039.59894612  .00037526  00000+0  10230-2 0  9997
2 43908  97.1609 285.4034 0013861 314.3569  45.6540 15.37272872229577
AOBA VELOX-IV           
1 43940U 19003J   23039.57402907  .00236543  00000+0  26477-2 0  9994
2 43940  97.0969  75.7703 0009549  16.9103 343.2472 15.61891704226599
MOVE-IIB                
1 44398U 19038N   23039.46522991  .00045733  00000+0  17018-2 0  9994
2 44398  97.6558  17.5143 0019652  37.4462 322.8141 15.27167858198931
